NORAD_CAT_ID,OBJECT_NAME,OBJECT_TYPE,EPOCH,MEAN_MOTION,ECCENTRICITY,INCLINATION,RA_OF_ASC_NODE,ARG_OF_PERICENTER,MEAN_ANOMALY,BSTAR,MEAN_MOTION_DOT,MEAN_MOTION_DDOT,TLE_LINE0,TLE_LINE1,TLE_LINE2,SEMIMAJOR_AXIS,PERIOD,APOGEE,PERIGEE,DECAYED
51995.0,STARLINK-3636,PAYLOAD,2023-05-15 05:44:17,15.08841109,0.0001036,53.2153,320.5084,74.3213,285.7893,5.9225e-05,6.55e-06,0.0,0 STARLINK-3636,1 51995U 22025AR  23135.23909630  .00000655  00000-0  59225-4 0  9999,2 51995  53.2153 320.5084 0001036  74.3213 285.7893 15.08841109 67015,6917.877,95.437,540.459,539.025,0.0
51995.0,STARLINK-3636,PAYLOAD,2023-05-15 18:27:23,15.0883755,0.000111,53.2154,318.1292,73.6493,286.4621,7.7332e-05,9.43e-06,0.0,0 STARLINK-3636,1 51995U 22025AR  23135.76901964  .00000943  00000-0  77332-4 0  9998,2 51995  53.2154 318.1292 0001110  73.6493 286.4621 15.08837550 65576,6917.888,95.438,540.521,538.985,0.0
51995.0,STARLINK-3636,PAYLOAD,2023-05-16 11:56:37,15.08838176,0.000107,53.2156,314.8554,86.2922,273.8193,8.0945e-05,1.001e-05,0.0,0 STARLINK-3636,1 51995U 22025AR  23136.49766002  .00001001  00000-0  80945-4 0  9991,2 51995  53.2156 314.8554 0001070  86.2922 273.8193 15.08838176 65685,6917.886,95.438,540.491,539.011,0.0
51995.0,STARLINK-3636,PAYLOAD,2023-05-16 18:18:10,15.08843854,0.0001123,53.2149,313.6667,83.2722,276.8398,8.6352e-05,1.087e-05,0.0,0 STARLINK-3636,1 51995U 22025AR  23136.76261611  .00001087  00000-0  86352-4 0  9999,2 51995  53.2149 313.6667 0001123  83.2722 276.8398 15.08843854 67246,6917.869,95.437,540.51,538.957,0.0
51995.0,STARLINK-3636,PAYLOAD,2023-05-17 02:15:06,15.08836041,0.0001185,53.2165,312.1806,69.6234,290.4886,-4.3155e-05,-9.74e-06,0.0,0 STARLINK-3636,1 51995U 22025AR  23137.09382284 -.00000974  00000-0 -43155-4 0  9996,2 51995  53.2165 312.1806 0001185  69.6234 290.4886 15.08836041 67296,6917.892,95.438,540.577,538.938,0.0
51995.0,STARLINK-3636,PAYLOAD,2023-05-17 18:08:57,15.08843396,0.0001054,53.2162,309.2052,88.1659,271.9454,0.00010868,1.442e-05,0.0,0 STARLINK-3636,1 51995U 22025AR  23137.75621602  .00001442  00000-0  10868-3 0  9992,2 51995  53.2162 309.2052 0001054  88.1659 271.9454 15.08843396 67392,6917.87,95.437,540.464,539.006,0.0
51995.0,STARLINK-3636,PAYLOAD,2023-05-17 19:44:20,15.08845486,0.0001022,53.2154,308.9083,82.2138,277.8971,0.00013648,1.885e-05,0.0,0 STARLINK-3636,1 51995U 22025AR  23137.82245553  .00001885  00000-0  13648-3 0  9997,2 51995  53.2154 308.9083 0001022  82.2138 277.8971 15.08845486 65888,6917.864,95.437,540.436,539.022,0.0
51995.0,STARLINK-3636,PAYLOAD,2023-05-18 11:38:11,15.08836004,0.0001067,53.2155,305.9351,88.6326,271.4788,-1.4019e-05,-5.11e-06,0.0,0 STARLINK-3636,1 51995U 22025AR  23138.48486099 -.00000511  00000-0 -14019-4 0  9993,2 51995  53.2155 305.9351 0001067  88.6326 271.4788 15.08836004 67505,6917.893,95.438,540.496,539.019,0.0
51995.0,STARLINK-3636,PAYLOAD,2023-05-18 17:59:44,15.08844002,0.000154,53.2155,304.7462,91.1837,268.9331,9.2844e-05,1.19e-05,0.0,0 STARLINK-3636,1 51995U 22025AR  23138.74981720  .00001190  00000-0  92844-4 0  9997,2 51995  53.2155 304.7462 0001540  91.1837 268.9331 15.08844002 67543,6917.868,95.437,540.799,538.668,0.0
51995.0,STARLINK-3636,PAYLOAD,2023-05-19 09:53:35,15.08839074,0.0001231,53.2155,301.7711,87.9654,272.1479,0.00016287,2.305e-05,0.0,0 STARLINK-3636,1 51995U 22025AR  23139.41222085  .00002305  00000-0  16287-3 0  9999,2 51995  53.2155 301.7711 0001231  87.9654 272.1479 15.08839074 67648,6917.883,95.438,540.6,538.897,0.0
51995.0,STARLINK-3636,PAYLOAD,2023-05-19 17:50:31,15.08845138,0.0001265,53.2155,300.2845,88.594,271.5197,0.00016148,2.283e-05,0.0,0 STARLINK-3636,1 51995U 22025AR  23139.74341734  .00002283  00000-0  16148-3 0  9999,2 51995  53.2155 300.2845 0001265  88.5940 271.5197 15.08845138 66177,6917.865,95.437,540.605,538.855,0.0
51995.0,STARLINK-3636,PAYLOAD,2023-05-20 17:41:18,15.0885348,9.62e-05,53.2149,295.8251,92.4626,267.6477,0.00033383,5.031e-05,0.0,0 STARLINK-3636,1 51995U 22025AR  23140.73701412  .00005031  00000-0  33383-3 0  9997,2 51995  53.2149 295.8251 0000962  92.4626 267.6477 15.08853480 67849,6917.839,95.437,540.37,539.039,0.0
51995.0,STARLINK-3636,PAYLOAD,2023-05-20 19:16:41,15.08858172,0.0001004,53.2149,295.5275,89.777,270.3338,0.00042649,6.51e-05,0.0,0 STARLINK-3636,1 51995U 22025AR  23140.80325239  .00006510  00000-0  42649-3 0  9992,2 51995  53.2149 295.5275 0001004  89.7770 270.3338 15.08858172 66332,6917.825,95.436,540.384,538.995,0.0
51995.0,STARLINK-3636,PAYLOAD,2023-05-21 09:35:09,15.08848272,0.0001046,53.2156,292.8513,69.9279,290.1826,0.00020609,2.994e-05,0.0,0 STARLINK-3636,1 51995U 22025AR  23141.39941431  .00002994  00000-0  20609-3 0  9999,2 51995  53.2156 292.8513 0001046  69.9279 290.1826 15.08848272 67945,6917.855,95.437,540.444,538.996,0.0
51995.0,STARLINK-3636,PAYLOAD,2023-05-21 12:45:56,15.08825743,0.0001054,53.2147,292.2568,78.8671,281.244,-0.00018421,-3.217e-05,0.0,0 STARLINK-3636,1 51995U 22025AR  23141.53190547 -.00003217  00000-0 -18421-3 0  9999,2 51995  53.2147 292.2568 0001054  78.8671 281.2440 15.08825743 66448,6917.924,95.438,540.518,539.06,0.0
51995.0,STARLINK-3636,PAYLOAD,2023-05-21 19:07:29,15.08830929,9.92e-05,53.2147,291.0674,75.9439,284.1663,-2.8768e-05,-7.45e-06,0.0,0 STARLINK-3636,1 51995U 22025AR  23141.79686582 -.00000745  00000-0 -28768-4 0  9995,2 51995  53.2147 291.0674 0000992  75.9439 284.1663 15.08830929 68008,6917.908,95.438,540.459,539.087,0.0
51995.0,STARLINK-3636,PAYLOAD,2023-05-22 03:04:24,15.08839227,0.0001043,53.2151,289.5792,73.1392,286.9714,0.00023608,3.471e-05,0.0,0 STARLINK-3636,1 51995U 22025AR  23142.12806473  .00003471  00000-0  23608-3 0  9990,2 51995  53.2151 289.5792 0001043  73.1392 286.9714 15.08839227 68054,6917.883,95.438,540.469,539.026,0.0
51995.0,STARLINK-3636,PAYLOAD,2023-05-22 18:58:15,15.08862233,0.0001012,53.2149,286.6058,66.3053,293.8045,0.001238,0.00019482,0.0,0 STARLINK-3636,1 51995U 22025AR  23142.79046271  .00019482  00000-0  12380-2 0  9998,2 51995  53.2149 286.6058 0001012  66.3053 293.8045 15.08862233 68156,6917.812,95.436,540.378,538.977,0.0
51995.0,STARLINK-3636,PAYLOAD,2023-05-23 15:38:16,15.08848929,8.07e-05,53.215,282.74,82.9511,277.1573,0.00058419,9.024e-05,0.0,0 STARLINK-3636,1 51995U 22025AR  23143.65158486  .00009024  00000-0  58419-3 0  9991,2 51995  53.2150 282.7400 0000807  82.9511 277.1573 15.08848929 68281,6917.853,95.437,540.276,539.16,0.0
51995.0,STARLINK-3636,PAYLOAD,2023-05-24 02:45:59,15.08844445,0.0001077,53.2147,280.6602,56.4129,303.6966,0.00062875,9.734e-05,0.0,0 STARLINK-3636,1 51995U 22025AR  23144.11526801  .00009734  00000-0  62875-3 0  9992,2 51995  53.2147 280.6602 0001077  56.4129 303.6966 15.08844445 68357,6917.867,95.437,540.477,538.987,0.0
51995.0,STARLINK-3636,PAYLOAD,2023-05-24 15:29:04,15.08841647,0.0001319,53.2176,278.2789,78.3302,281.7838,0.0003164,4.751e-05,0.0,0 STARLINK-3636,1 51995U 22025AR  23144.64518959  .00004751  00000-0  31640-3 0  9995,2 51995  53.2176 278.2789 0001319  78.3302 281.7838 15.08841647 68437,6917.875,95.437,540.653,538.828,0.0
51995.0,STARLINK-3636,PAYLOAD,2023-05-25 13:44:28,15.08846259,0.0001049,53.2154,274.1173,77.1589,282.952,0.00026094,3.868e-05,0.0,0 STARLINK-3636,1 51995U 22025AR  23145.57254726  .00003868  00000-0  26094-3 0  9992,2 51995  53.2154 274.1173 0001049  77.1589 282.9520 15.08846259 67051,6917.861,95.437,540.452,539.001,0.0
51995.0,STARLINK-3636,PAYLOAD,2023-05-25 15:19:51,15.08847919,0.0001083,53.2157,273.8197,77.6589,282.4524,0.00028092,4.187e-05,0.0,0 STARLINK-3636,1 51995U 22025AR  23145.63878642  .00004187  00000-0  28092-3 0  9993,2 51995  53.2157 273.8197 0001083  77.6589 282.4524 15.08847919 67063,6917.856,95.437,540.47,538.972,0.0
51995.0,STARLINK-3636,PAYLOAD,2023-05-26 13:35:15,15.08842418,0.0001088,53.2157,269.657,78.733,281.3784,8.6277e-05,1.086e-05,0.0,0 STARLINK-3636,1 51995U 22025AR  23146.56614640  .00001086  00000-0  86277-4 0  9997,2 51995  53.2157 269.6570 0001088  78.7330 281.3784 15.08842418 67203,6917.873,95.437,540.491,538.985,0.0
51995.0,STARLINK-3636,PAYLOAD,2023-05-26 15:10:38,15.08843801,0.0001125,53.2162,269.3613,93.5202,266.5919,0.0001027,1.347e-05,0.0,0 STARLINK-3636,1 51995U 22025AR  23146.63238513  .00001347  00000-0  10270-3 0  9995,2 51995  53.2162 269.3613 0001125  93.5202 266.5919 15.08843801 68730,6917.869,95.437,540.512,538.956,0.0
51995.0,STARLINK-3636,PAYLOAD,2023-05-27 08:39:52,15.08837908,0.0001165,53.2161,266.089,96.6347,263.4778,-2.2831e-05,-6.51e-06,0.0,0 STARLINK-3636,1 51995U 22025AR  23147.36102709 -.00000651  00000-0 -22831-4 0  9999,2 51995  53.2161 266.0890 0001165  96.6347 263.4778 15.08837908 68840,6917.887,95.438,540.558,538.946,0.0
51995.0,STARLINK-3636,PAYLOAD,2023-05-27 15:01:25,15.08837956,9.72e-05,53.2155,264.9003,103.1167,256.9934,5.2807e-05,5.53e-06,0.0,0 STARLINK-3636,1 51995U 22025AR  23147.62598965  .00000553  00000-0  52807-4 0  9996,2 51995  53.2155 264.9003 0000972 103.1167 256.9934 15.08837956 67365,6917.887,95.438,540.424,539.079,0.0
51995.0,STARLINK-3636,PAYLOAD,2023-05-28 00:33:44,15.0884097,9.23e-05,53.2155,263.1161,105.6937,254.4157,-4.4465e-06,-3.58e-06,0.0,0 STARLINK-3636,1 51995U 22025AR  23148.02342862 -.00000358  00000-0 -44465-5 0  9991,2 51995  53.2155 263.1161 0000923 105.6937 254.4157 15.08840970 67426,6917.877,95.437,540.381,539.104,0.0
51995.0,STARLINK-3636,PAYLOAD,2023-05-28 16:27:34,15.08852373,9.71e-05,53.2155,260.1426,107.1229,252.987,5.6616e-05,6.14e-06,0.0,0 STARLINK-3636,1 51995U 22025AR  23148.68582117  .00000614  00000-0  56616-4 0  9995,2 51995  53.2155 260.1426 0000971 107.1229 252.9870 15.08852373 69046,6917.843,95.437,540.379,539.036,0.0
51995.0,STARLINK-3636,PAYLOAD,2023-05-29 00:24:31,15.08840152,0.0001037,53.2169,258.6565,108.5002,251.6103,0.00010441,1.374e-05,0.0,0 STARLINK-3636,1 51995U 22025AR  23149.01702820  .00001374  00000-0  10441-3 0  9997,2 51995  53.2169 258.6565 0001037 108.5002 251.6103 15.08840152 69097,6917.88,95.438,540.462,539.028,0.0
